{"type": "FeatureCollection", "features": [{"type": "Feature", "properties": {"norad_id": 2807, "name": "OPS 7218 (TRANSIT 16)", "group": "nnss", "lat": 80.05585872629248, "lon": 172.0887746267124, "alt_km": 1046.1302568736537, "timestamp": "2025-12-14T14:39:29.638947+00:00", "meta": {"OBJECT_NAME": "OPS 7218 (TRANSIT 16)", "OBJECT_ID": "1967-048A", "EPOCH": "2025-12-14T00:12:10.796256", "MEAN_MOTION": 13.50722423, "ECCENTRICITY": 0.00220092, "INCLINATION": 89.6732, "RA_OF_ASC_NODE": 353.9741, "ARG_OF_PERICENTER": 110.6963, "MEAN_ANOMALY": 302.2555, "EPHEMERIS_TYPE": 0, "CLASSIFICATION_TYPE": "U", "NORAD_CAT_ID": 2807, "ELEMENT_SET_NO": 999, "REV_AT_EPOCH": 88293, "BSTAR": 0.00018384202, "MEAN_MOTION_DOT": 1.29e-06, "MEAN_MOTION_DDOT": 0}, "tle": {"line1": "1 02807U 67048A   25348.00845829  .00000129  00000+0  18384-3 0  9998", "line2": "2 02807  89.6732 353.9741 0022009 110.6963 302.2555 13.50722423882936"}}, "geometry": {"type": "Point", "coordinates": [172.0887746267124, 80.05585872629248]}}, {"type": "Feature", "properties": {"norad_id": 2965, "name": "OPS 4947 (TRANSIT 17)", "group": "nnss", "lat": -2.5562274605101036, "lon": -155.6733741698874, "alt_km": 1039.1045199102955, "timestamp": "2025-12-14T14:39:29.638969+00:00", "meta": {"OBJECT_NAME": "OPS 4947 (TRANSIT 17)", "OBJECT_ID": "1967-092A", "EPOCH": "2025-12-13T20:52:15.682944", "MEAN_MOTION": 13.53453723, "ECCENTRICITY": 0.00462493, "INCLINATION": 89.2495, "RA_OF_ASC_NODE": 24.3495, "ARG_OF_PERICENTER": 231.111, "MEAN_ANOMALY": 302.7414, "EPHEMERIS_TYPE": 0, "CLASSIFICATION_TYPE": "U", "NORAD_CAT_ID": 2965, "ELEMENT_SET_NO": 999, "REV_AT_EPOCH": 87112, "BSTAR": 0.00022729828, "MEAN_MOTION_DOT": 1.65e-06, "MEAN_MOTION_DDOT": 0}, "tle": {"line1": "1 02965U 67092A   25347.86962596  .00000165  00000+0  22730-3 0  9996", "line2": "2 02965  89.2495  24.3495 0046249 231.1110 302.7414 13.53453723871128"}}, "geometry": {"type": "Point", "coordinates": [-155.6733741698874, -2.5562274605101036]}}, {"type": "Feature", "properties": {"norad_id": 3133, "name": "OPS 7034 (TRANSIT 18)", "group": "nnss", "lat": -40.43775474288821, "lon": -86.33209321800163, "alt_km": 1123.2924459642581, "timestamp": "2025-12-14T14:39:29.638983+00:00", "meta": {"OBJECT_NAME": "OPS 7034 (TRANSIT 18)", "OBJECT_ID": "1968-012A", "EPOCH": "2025-12-13T21:26:13.955712", "MEAN_MOTION": 13.51565924, "ECCENTRICITY": 0.00739635, "INCLINATION": 90.028, "RA_OF_ASC_NODE": 273.642, "ARG_OF_PERICENTER": 165.7892, "MEAN_ANOMALY": 264.2963, "EPHEMERIS_TYPE": 0, "CLASSIFICATION_TYPE": "U", "NORAD_CAT_ID": 3133, "ELEMENT_SET_NO": 999, "REV_AT_EPOCH": 56934, "BSTAR": 0.00019153633, "MEAN_MOTION_DOT": 1.37e-06, "MEAN_MOTION_DDOT": 0}, "tle": {"line1": "1 03133U 68012A   25347.89321708  .00000137  00000+0  19154-3 0  9999", "line2": "2 03133  90.0280 273.6420 0073963 165.7892 264.2963 13.51565924569341"}}, "geometry": {"type": "Point", "coordinates": [-86.33209321800163, -40.43775474288821]}}, {"type": "Feature", "properties": {"norad_id": 4507, "name": "NNSS 19 (TRANSIT 19)", "group": "nnss", "lat": -70.91533070982236, "lon": -125.44890761346436, "alt_km": 947.8793653308448, "timestamp": "2025-12-14T14:39:29.638996+00:00", "meta": {"OBJECT_NAME": "NNSS 19 (TRANSIT 19)", "OBJECT_ID": "1970-067A", "EPOCH": "2025-12-13T17:40:28.521408", "MEAN_MOTION": 13.51315365, "ECCENTRICITY": 0.01704886, "INCLINATION": 90.0055, "RA_OF_ASC_NODE": 234.5347, "ARG_OF_PERICENTER": 290.4672, "MEAN_ANOMALY": 67.8249, "EPHEMERIS_TYPE": 0, "CLASSIFICATION_TYPE": "U", "NORAD_CAT_ID": 4507, "ELEMENT_SET_NO": 999, "REV_AT_EPOCH": 72235, "BSTAR": 0.0001952017, "MEAN_MOTION_DOT": 1.46e-06, "MEAN_MOTION_DDOT": 0}, "tle": {"line1": "1 04507U 70067A   25347.73644122  .00000146  00000+0  19520-3 0  9996", "line2": "2 04507  90.0055 234.5347 0170488 290.4672  67.8249 13.51315365722351"}}, "geometry": {"type": "Point", "coordinates": [-125.44890761346436, -70.91533070982236]}}, {"type": "Feature", "properties": {"norad_id": 6909, "name": "NNSS 20 (TRANSIT 20)", "group": "nnss", "lat": 41.216538395979214, "lon": 74.90006884635321, "alt_km": 942.6123011696454, "timestamp": "2025-12-14T14:39:29.639012+00:00", "meta": {"OBJECT_NAME": "NNSS 20 (TRANSIT 20)", "OBJECT_ID": "1973-081A", "EPOCH": "2025-12-13T23:59:31.276320", "MEAN_MOTION": 13.71434815, "ECCENTRICITY": 0.01566118, "INCLINATION": 89.8562, "RA_OF_ASC_NODE": 255.0353, "ARG_OF_PERICENTER": 74.5885, "MEAN_ANOMALY": 287.2518, "EPHEMERIS_TYPE": 0, "CLASSIFICATION_TYPE": "U", "NORAD_CAT_ID": 6909, "ELEMENT_SET_NO": 999, "REV_AT_EPOCH": 80378, "BSTAR": 0.00029251983, "MEAN_MOTION_DOT": 2.99e-06, "MEAN_MOTION_DDOT": 0}, "tle": {"line1": "1 06909U 73081A   25347.99966755  .00000299  00000+0  29252-3 0  9992", "line2": "2 06909  89.8562 255.0353 0156611  74.5885 287.2518 13.71434815803780"}}, "geometry": {"type": "Point", "coordinates": [74.90006884635321, 41.216538395979214]}}, {"type": "Feature", "properties": {"norad_id": 10457, "name": "TRANSAT", "group": "nnss", "lat": -81.5960210788352, "lon": 76.14678112760063, "alt_km": 1085.0111214605195, "timestamp": "2025-12-14T14:39:29.639024+00:00", "meta": {"OBJECT_NAME": "TRANSAT", "OBJECT_ID": "1977-106A", "EPOCH": "2025-12-13T23:54:14.177952", "MEAN_MOTION": 13.48943835, "ECCENTRICITY": 0.00255144, "INCLINATION": 89.6481, "RA_OF_ASC_NODE": 78.5526, "ARG_OF_PERICENTER": 185.8366, "MEAN_ANOMALY": 348.653, "EPHEMERIS_TYPE": 0, "CLASSIFICATION_TYPE": "U", "NORAD_CAT_ID": 10457, "ELEMENT_SET_NO": 999, "REV_AT_EPOCH": 36760, "BSTAR": 0.00013962146, "MEAN_MOTION_DOT": 9.8e-07, "MEAN_MOTION_DDOT": 0}, "tle": {"line1": "1 10457U 77106A   25347.99599743  .00000098  00000+0  13962-3 0  9994", "line2": "2 10457  89.6481  78.5526 0025514 185.8366 348.6530 13.48943835367601"}}, "geometry": {"type": "Point", "coordinates": [76.14678112760063, -81.5960210788352]}}, {"type": "Feature", "properties": {"norad_id": 12458, "name": "NOVA 1", "group": "nnss", "lat": 6.725286019866664, "lon": 91.37601695619233, "alt_km": 1174.689982433585, "timestamp": "2025-12-14T14:39:29.639035+00:00", "meta": {"OBJECT_NAME": "NOVA 1", "OBJECT_ID": "1981-044A", "EPOCH": "2025-12-13T21:05:02.798304", "MEAN_MOTION": 13.23278629, "ECCENTRICITY": 0.00159018, "INCLINATION": 89.8524, "RA_OF_ASC_NODE": 91.369, "ARG_OF_PERICENTER": 101.1865, "MEAN_ANOMALY": 19.5332, "EPHEMERIS_TYPE": 0, "CLASSIFICATION_TYPE": "U", "NORAD_CAT_ID": 12458, "ELEMENT_SET_NO": 999, "REV_AT_EPOCH": 15201, "BSTAR": 0.0001734487, "MEAN_MOTION_DOT": 8.2e-07, "MEAN_MOTION_DDOT": 0}, "tle": {"line1": "1 12458U 81044A   25347.87850461  .00000082  00000+0  17345-3 0  9999", "line2": "2 12458  89.8524  91.3690 0015901 101.1865  19.5332 13.23278629152019"}}, "geometry": {"type": "Point", "coordinates": [91.37601695619233, 6.725286019866664]}}, {"type": "Feature", "properties": {"norad_id": 15362, "name": "NOVA 3", "group": "nnss", "lat": -57.84557159098278, "lon": -99.63789341837887, "alt_km": 1179.7487541196551, "timestamp": "2025-12-14T14:39:29.639046+00:00", "meta": {"OBJECT_NAME": "NOVA 3", "OBJECT_ID": "1984-110A", "EPOCH": "2025-12-13T23:49:08.703840", "MEAN_MOTION": 13.23044694, "ECCENTRICITY": 0.00304149, "INCLINATION": 90.1223, "RA_OF_ASC_NODE": 80.5495, "ARG_OF_PERICENTER": 328.3437, "MEAN_ANOMALY": 206.5615, "EPHEMERIS_TYPE": 0, "CLASSIFICATION_TYPE": "U", "NORAD_CAT_ID": 15362, "ELEMENT_SET_NO": 999, "REV_AT_EPOCH": 98715, "BSTAR": 0.00011988345, "MEAN_MOTION_DOT": 5.9e-07, "MEAN_MOTION_DDOT": 0}, "tle": {"line1": "1 15362U 84110A   25347.99246185  .00000059  00000+0  11988-3 0  9999", "line2": "2 15362  90.1223  80.5495 0030414 328.3437 206.5615 13.23044694987150"}}, "geometry": {"type": "Point", "coordinates": [-99.63789341837887, -57.84557159098278]}}, {"type": "Feature", "properties": {"norad_id": 15935, "name": "OSCAR 30", "group": "nnss", "lat": 45.44559435735665, "lon": 99.70975733973027, "alt_km": 1012.9757387767158, "timestamp": "2025-12-14T14:39:29.639056+00:00", "meta": {"OBJECT_NAME": "OSCAR 30", "OBJECT_ID": "1985-066A", "EPOCH": "2025-12-13T21:01:14.528640", "MEAN_MOTION": 13.36078497, "ECCENTRICITY": 0.01693877, "INCLINATION": 90.1651, "RA_OF_ASC_NODE": 99.8656, "ARG_OF_PERICENTER": 80.7343, "MEAN_ANOMALY": 33.1422, "EPHEMERIS_TYPE": 0, "CLASSIFICATION_TYPE": "U", "NORAD_CAT_ID": 15935, "ELEMENT_SET_NO": 999, "REV_AT_EPOCH": 96468, "BSTAR": 0.00015802108, "MEAN_MOTION_DOT": 9.8e-07, "MEAN_MOTION_DDOT": 0}, "tle": {"line1": "1 15935U 85066A   25347.87586260  .00000098  00000+0  15802-3 0  9996", "line2": "2 15935  90.1651  99.8656 0169387  80.7343  33.1422 13.36078497964685"}}, "geometry": {"type": "Point", "coordinates": [99.70975733973027, 45.44559435735665]}}, {"type": "Feature", "properties": {"norad_id": 15936, "name": "OSCAR 24", "group": "nnss", "lat": 57.82593697557884, "lon": -87.37688541415267, "alt_km": 1016.0403412676851, "timestamp": "2025-12-14T14:39:29.639067+00:00", "meta": {"OBJECT_NAME": "OSCAR 24", "OBJECT_ID": "1985-066B", "EPOCH": "2025-12-13T20:39:33.553728", "MEAN_MOTION": 13.3593597, "ECCENTRICITY": 0.01704731, "INCLINATION": 90.179, "RA_OF_ASC_NODE": 92.3252, "ARG_OF_PERICENTER": 87.2115, "MEAN_ANOMALY": 29.0488, "EPHEMERIS_TYPE": 0, "CLASSIFICATION_TYPE": "U", "NORAD_CAT_ID": 15936, "ELEMENT_SET_NO": 999, "REV_AT_EPOCH": 96658, "BSTAR": 0.00014735363, "MEAN_MOTION_DOT": 9.2e-07, "MEAN_MOTION_DDOT": 0}, "tle": {"line1": "1 15936U 85066B   25347.86080502  .00000092  00000+0  14735-3 0  9992", "line2": "2 15936  90.1790  92.3252 0170473  87.2115  29.0488 13.35935970966581"}}, "geometry": {"type": "Point", "coordinates": [-87.37688541415267, 57.82593697557884]}}]}